KUIPER-00089            
1 64834U 25151U   25362.63345426 -.00005952  00000+0 -75303-3 0  9993
2 64834  51.9010 239.7991 0002541 109.3524 250.7713 14.79890440 24994
KUIPER-00090            
1 64835U 25151V   25362.05515982  .00004312  00000+0  64121-3 0  9999
2 64835  51.8967 234.4251 0004681 108.8705 251.2764 14.76661926 25016
KUIPER-00091            
1 64836U 25151W   25362.36608688  .00005018  00000+0  68680-3 0  9998
2 64836  51.8993 238.4866 0008587  62.4336 297.7497 14.79925263 24989
KUIPER-00092            
1 64837U 25151X   25362.42546807 -.00009310  00000+0 -11948-2 0  9995
2 64837  51.8998 245.7208 0003135  46.5380 313.5843 14.79892352 26102
KUIPER-00093            
1 64838U 25151Y   25362.08514551 -.00024531  00000+0 -31951-2 0  9997
2 64838  51.8999 249.7121 0002704  50.8775 309.2428 14.79999434 24804
KUIPER-00094            
1 64839U 25151Z   25362.66179654  .00009943  00000+0  71082-3 0  9991
2 64839  51.8891 229.0977 0004468  47.1043 313.0304 15.05012210 25144
KUIPER-00081            
1 65132U 25171A   25362.66668981  .00022808  00000+0  26402-2 0  9996
2 65132  51.9000 102.3425 0001731 337.0069 197.2697 14.85404528  5389
KUIPER-00088            
1 65133U 25171B   25362.64183123  .00003838  00000+0  57244-3 0  9996
2 65133  51.8994 120.2441 0007617 242.3099 117.7090 14.76777810 22265
